ONEWEB-0687             
1 61595U 24188B   25281.42645629  .00000008  00000+0 -12248-4 0  9994
2 61595  87.9079  55.9727 0002141  84.5170 275.6205 13.17648267 52746
ONEWEB-0688             
1 61596U 24188C   25282.13856861 -.00000097  00000+0 -28312-3 0  9993
2 61596  87.9082  55.8310 0001895  55.0632 305.0678 13.17650386 52836
ONEWEB-0689             
1 61597U 24188D   25282.17441359  .00000514  00000+0  14145-2 0  9990
2 61597  87.8781  71.0407 0001981  89.1232 271.0123 13.11415852 51555
ONEWEB-0690             
1 61598U 24188E   25281.87939898  .00000313  00000+0  84802-3 0  9992
2 61598  87.8819  71.0916 0001052 115.7638 244.3599 13.11415935 51695
ONEWEB-0691             
1 61599U 24188F   25282.17950227  .00000394  00000+0  10750-2 0  9995
2 61599  87.8747  70.9679 0001565  79.8310 280.2995 13.11414447 51580
ONEWEB-0692             
1 61600U 24188G   25282.12353653 -.00000177  00000+0 -53583-3 0  9996
2 61600  87.8800  71.1018 0002396 111.7040 248.4343 13.11416362 51561
ONEWEB-0693             
1 61601U 24188H   25281.84660381  .00000029  00000+0  42249-4 0  9996
2 61601  87.9081  55.9077 0000801 105.5742 254.5478 13.17651382 52789
ONEWEB-0695             
1 61602U 24188J   25282.17610735  .00000478  00000+0  13139-2 0  9994
2 61602  87.8807  71.0786 0002204  96.6757 263.4622 13.11415685 51569
